QIANFAN-25              
1 61558U 24185G   26013.82144616  .00000323  00000+0  18906-3 0  9993
2 61558  88.9774  74.5613 0009550 200.3179 159.7625 14.05938024 74010
QIANFAN-26              
1 61559U 24185H   26013.84776511  .00000224  00000+0  21145-3 0  9990
2 61559  88.9786  76.2891 0003650 270.2088  89.8660 13.77833268 73092
QIANFAN-27              
1 61560U 24185J   26013.85639881  .00000269  00000+0  10394-3 0  9994
2 61560  88.9778  73.1810 0008231 167.6523 192.4875 14.27376115 74746
QIANFAN-28              
1 61561U 24185K   26013.82249358  .00000584  00000+0  22897-3 0  9999
2 61561  88.9796  73.1904 0007761 166.5568 193.5835 14.28106178 74755
QIANFAN-29              
1 61562U 24185L   26013.88204871  .00000096  00000+0  13083-3 0  9992
2 61562  88.9763  77.9930 0008433 326.0591  34.0020 13.51023519 72134
QIANFAN-30              
1 61563U 24185M   26013.88125861  .00000139  00000+0  20033-3 0  9995
2 61563  88.9784  77.5310 0005809 310.5188  49.5456 13.50001058 72407
QIANFAN-31              
1 61564U 24185N   26013.88201577  .00000041  00000+0  40157-4 0  9997
2 61564  88.9767  77.2817 0005067 301.9814  58.0848 13.57979947 72525
QIANFAN-32              
1 61565U 24185P   26013.83193569  .00000136  00000+0  19313-3 0  9998
2 61565  88.9827  77.6797 0008327 341.4936  18.5911 13.50748468 72370
